NORAD_CAT_ID,OBJECT_NAME,OBJECT_TYPE,EPOCH,MEAN_MOTION,ECCENTRICITY,INCLINATION,RA_OF_ASC_NODE,ARG_OF_PERICENTER,MEAN_ANOMALY,BSTAR,MEAN_MOTION_DOT,MEAN_MOTION_DDOT,TLE_LINE0,TLE_LINE1,TLE_LINE2,SEMIMAJOR_AXIS,PERIOD,APOGEE,PERIGEE,DECAYED
53701.0,STARLINK-4711,PAYLOAD,2024-05-10 22:47:47,15.088531,0.0001221,53.2179,1.3065,84.8736,275.2396,0.00019082,2.751e-05,0.0,0 STARLINK-4711,1 53701U 22107B   24131.94985163  .00002751  00000-0  19082-3 0  9992,2 53701  53.2179   1.3065 0001221  84.8736 275.2396 15.08853100 94055,6917.84,95.437,540.55,538.861,0.0
53701.0,STARLINK-4711,PAYLOAD,2024-05-11 00:23:10,15.08861718,0.0001204,53.218,1.0096,100.318,259.7948,0.00035957,5.443e-05,0.0,0 STARLINK-4711,1 53701U 22107B   24132.01609098  .00005443  00000-0  35957-3 0  9991,2 53701  53.2180   1.0096 0001204 100.3180 259.7948 15.08861718 93318,6917.814,95.436,540.512,538.846,0.0
53701.0,STARLINK-4711,PAYLOAD,2024-05-11 22:38:32,15.0881764,0.0001084,53.2162,356.8487,98.4491,261.6624,-0.0012755,-0.00020517,0.0,0 STARLINK-4711,1 53701U 22107B   24132.94343661 -.00020517  00000-0 -12755-2 0  9995,2 53701  53.2162 356.8487 0001084  98.4491 261.6624 15.08817640 93454,6917.949,95.439,540.564,539.064,0.0
53701.0,STARLINK-4711,PAYLOAD,2024-05-12 08:10:53,15.08791617,0.0001426,53.2171,355.0628,95.6348,264.4807,-0.001389,-0.00022297,0.0,0 STARLINK-4711,1 53701U 22107B   24133.34090069 -.00022297  00000-0 -13890-2 0  9999,2 53701  53.2171 355.0628 0001426  95.6348 264.4807 15.08791617 93518,6918.028,95.441,540.88,538.907,0.0
53701.0,STARLINK-4711,PAYLOAD,2024-05-12 14:32:27,15.08782286,0.0001641,53.2167,353.8779,79.4521,280.6656,-0.0012503,-0.000201,0.0,0 STARLINK-4711,1 53701U 22107B   24133.60587211 -.00020100  00000-0 -12503-2 0  9999,2 53701  53.2167 353.8779 0001641  79.4521 280.6656 15.08782286 94300,6918.057,95.441,541.057,538.787,0.0
53701.0,STARLINK-4711,PAYLOAD,2024-05-12 20:53:59,15.08822599,0.0001476,53.2171,352.6847,109.3613,250.7539,-1.6226e-05,-5.46e-06,0.0,0 STARLINK-4711,1 53701U 22107B   24133.87082943 -.00000546  00000-0 -16226-4 0  9990,2 53701  53.2171 352.6847 0001476 109.3613 250.7539 15.08822599 93599,6917.934,95.439,540.82,538.777,0.0
53701.0,STARLINK-4711,PAYLOAD,2024-05-13 08:01:42,15.08830873,0.0001463,53.2175,350.6051,100.8804,259.2353,0.00097521,0.00015263,0.0,0 STARLINK-4711,1 53701U 22107B   24134.33451731  .00015263  00000-0  97521-3 0  9993,2 53701  53.2175 350.6051 0001463 100.8804 259.2353 15.08830873 94416,6917.908,95.438,540.785,538.761,0.0
53701.0,STARLINK-4711,PAYLOAD,2024-05-14 20:35:32,15.08865447,0.0001371,53.217,343.7675,85.856,274.2588,0.00036724,5.566e-05,0.0,0 STARLINK-4711,1 53701U 22107B   24135.85801975  .00005566  00000-0  36724-3 0  9993,2 53701  53.2170 343.7675 0001371  85.8560 274.2588 15.08865447 93898,6917.803,95.436,540.616,538.719,0.0
53701.0,STARLINK-4711,PAYLOAD,2024-05-14 23:46:19,15.08867943,0.0001395,53.2166,343.1725,85.0298,275.0854,0.0005756,8.892e-05,0.0,0 STARLINK-4711,1 53701U 22107B   24135.99049806  .00008892  00000-0  57560-3 0  9991,2 53701  53.2166 343.1725 0001395  85.0298 275.0854 15.08867943 94663,6917.795,95.436,540.625,538.695,0.0
53701.0,STARLINK-4711,PAYLOAD,2024-05-15 20:26:19,15.08850171,0.0001509,53.2175,339.3036,97.9627,262.1536,0.00035777,5.412e-05,0.0,0 STARLINK-4711,1 53701U 22107B   24136.85161913  .00005412  00000-0  35777-3 0  9992,2 53701  53.2175 339.3036 0001509  97.9627 262.1536 15.08850171 94041,6917.849,95.437,540.758,538.67,0.0
53701.0,STARLINK-4711,PAYLOAD,2024-05-16 12:20:11,15.08846573,0.0002043,53.2194,336.334,91.983,268.1396,0.00032739,4.927e-05,0.0,0 STARLINK-4711,1 53701U 22107B   24137.51401963  .00004927  00000-0  32739-3 0  9993,2 53701  53.2194 336.3340 0002043  91.9830 268.1396 15.08846573 94143,6917.86,95.437,541.139,538.312,0.0
53701.0,STARLINK-4711,PAYLOAD,2024-05-16 20:17:06,15.08852641,0.0001673,53.2191,334.8475,91.407,268.7114,0.00016061,2.27e-05,0.0,0 STARLINK-4711,1 53701U 22107B   24137.84521286  .00002270  00000-0  16061-3 0  9999,2 53701  53.2191 334.8475 0001673  91.4070 268.7114 15.08852641 94946,6917.842,95.437,540.864,538.549,0.0
53701.0,STARLINK-4711,PAYLOAD,2024-05-16 23:27:52,15.08853928,0.0002024,53.2187,334.2517,90.1087,270.0137,0.00039709,6.04e-05,0.0,0 STARLINK-4711,1 53701U 22107B   24137.97769512  .00006040  00000-0  39709-3 0  9992,2 53701  53.2187 334.2517 0002024  90.1087 270.0137 15.08853928 94969,6917.838,95.437,541.103,538.303,0.0
53701.0,STARLINK-4711,PAYLOAD,2024-05-17 20:07:54,15.08836741,0.0002251,53.2171,330.3837,84.2385,275.8864,-2.2684e-05,-6.49e-06,0.0,0 STARLINK-4711,1 53701U 22107B   24138.83882303 -.00000649  00000-0 -22684-4 0  9998,2 53701  53.2171 330.3837 0002251  84.2385 275.8864 15.08836741 94347,6917.89,95.438,541.313,538.198,0.0
53701.0,STARLINK-4711,PAYLOAD,2024-05-17 21:43:17,15.08833323,0.0001834,53.2184,330.0896,87.781,272.3392,-5.0335e-05,-1.089e-05,0.0,0 STARLINK-4711,1 53701U 22107B   24138.90506506 -.00001089  00000-0 -50335-4 0  9997,2 53701  53.2184 330.0896 0001834  87.7810 272.3392 15.08833323 95106,6917.901,95.438,541.035,538.497,0.0
53701.0,STARLINK-4711,PAYLOAD,2024-05-18 12:01:45,15.08848215,0.0001795,53.2157,327.4105,89.2268,270.893,0.00035489,5.366e-05,0.0,0 STARLINK-4711,1 53701U 22107B   24139.50122160  .00005366  00000-0  35489-3 0  9996,2 53701  53.2157 327.4105 0001795  89.2268 270.8930 15.08848215 95195,6917.855,95.437,540.962,538.479,0.0
53701.0,STARLINK-4711,PAYLOAD,2024-05-18 19:58:40,15.08868634,0.0001648,53.2163,325.9228,81.7391,278.3788,0.0020193,0.00032021,0.0,0 STARLINK-4711,1 53701U 22107B   24139.83241637  .00032021  00000-0  20193-2 0  9996,2 53701  53.2163 325.9228 0001648  81.7391 278.3788 15.08868634 94495,6917.793,95.436,540.798,538.518,0.0
53701.0,STARLINK-4711,PAYLOAD,2024-05-19 19:49:27,15.08852731,0.0001361,53.2153,321.4647,67.0945,293.0191,0.0013748,0.00021667,0.0,0 STARLINK-4711,1 53701U 22107B   24140.82601668  .00021667  00000-0  13748-2 0  9993,2 53701  53.2153 321.4647 0001361  67.0945 293.0191 15.08852731 94644,6917.841,95.437,540.648,538.765,0.0
53701.0,STARLINK-4711,PAYLOAD,2024-05-20 18:04:52,15.08844459,0.0001269,53.2163,317.2991,71.3549,288.7581,0.0015883,0.00025083,0.0,0 STARLINK-4711,1 53701U 22107B   24141.75338569  .00025083  00000-0  15883-2 0  9991,2 53701  53.2163 317.2991 0001269  71.3549 288.7581 15.08844459 94782,6917.867,95.437,540.61,538.854,0.0
53701.0,STARLINK-4711,PAYLOAD,2024-05-20 21:15:38,15.08844598,0.0001391,53.2167,316.7046,72.1647,287.9496,0.0013303,0.0002095,0.0,0 STARLINK-4711,1 53701U 22107B   24141.88586595  .00020950  00000-0  13303-2 0  9992,2 53701  53.2167 316.7046 0001391  72.1647 287.9496 15.08844598 94808,6917.866,95.437,540.694,538.769,0.0
53701.0,STARLINK-4711,PAYLOAD,2024-05-21 14:44:53,15.08836035,0.0002103,53.2162,313.433,114.6627,245.4584,0.00090679,0.00014172,0.0,0 STARLINK-4711,1 53701U 22107B   24142.61450849  .00014172  00000-0  90679-3 0  9997,2 53701  53.2162 313.4330 0002103 114.6627 245.4584 15.08836035 95664,6917.893,95.438,541.212,538.303,0.0
53701.0,STARLINK-4711,PAYLOAD,2024-05-21 21:06:26,15.08845895,0.0001312,53.2164,312.2446,95.2266,264.8875,0.0011316,0.0001777,0.0,0 STARLINK-4711,1 53701U 22107B   24142.87946957  .00017770  00000-0  11316-2 0  9992,2 53701  53.2164 312.2446 0001312  95.2266 264.8875 15.08845895 94958,6917.862,95.437,540.635,538.82,0.0
53701.0,STARLINK-4711,PAYLOAD,2024-05-22 20:57:12,15.08855717,0.0001358,53.2171,307.783,94.5743,265.5404,0.00046324,7.095e-05,0.0,0 STARLINK-4711,1 53701U 22107B   24143.87306338  .00007095  00000-0  46324-3 0  9993,2 53701  53.2171 307.7830 0001358  94.5743 265.5404 15.08855717 95102,6917.832,95.437,540.637,538.758,0.0
53701.0,STARLINK-4711,PAYLOAD,2024-05-23 11:15:41,15.08855263,0.0004213,53.2168,305.1039,85.9784,274.169,0.0002835,4.228e-05,0.0,0 STARLINK-4711,1 53701U 22107B   24144.46922999  .00004228  00000-0  28350-3 0  9990,2 53701  53.2168 305.1039 0004213  85.9784 274.1690 15.08855263 95191,6917.834,95.437,542.613,536.784,0.0
53701.0,STARLINK-4711,PAYLOAD,2024-05-23 14:26:27,15.088328,0.0001232,53.2168,304.511,84.9177,275.1956,-1.3384e-05,-5.01e-06,0.0,0 STARLINK-4711,1 53701U 22107B   24144.60170780 -.00000501  00000-0 -13384-4 0  9993,2 53701  53.2168 304.5110 0001232  84.9177 275.1956 15.08832800 95960,6917.902,95.438,540.62,538.915,0.0
53701.0,STARLINK-4711,PAYLOAD,2024-05-23 17:37:13,15.08835124,0.0001293,53.2171,303.9144,86.388,273.726,1.1062e-05,-1.12e-06,0.0,0 STARLINK-4711,1 53701U 22107B   24144.73418977 -.00000112  00000-0  11062-4 0  9998,2 53701  53.2171 303.9144 0001293  86.3880 273.7260 15.08835124 95232,6917.895,95.438,540.655,538.866,0.0
53701.0,STARLINK-4711,PAYLOAD,2024-05-24 14:17:14,15.08844948,0.000124,53.2177,300.053,93.8831,266.2303,0.00034489,5.206e-05,0.0,0 STARLINK-4711,1 53701U 22107B   24145.59530685  .00005206  00000-0  34489-3 0  9999,2 53701  53.2177 300.0530 0001240  93.8831 266.2303 15.08844948 96113,6917.865,95.437,540.588,538.872,0.0
53701.0,STARLINK-4711,PAYLOAD,2024-05-24 20:38:46,15.08850812,0.0001615,53.218,298.8616,115.6787,244.4372,0.00035091,5.303e-05,0.0,0 STARLINK-4711,1 53701U 22107B   24145.86026243  .00005303  00000-0  35091-3 0  9997,2 53701  53.2180 298.8616 0001615 115.6787 244.4372 15.08850812 95407,6917.847,95.437,540.83,538.595,0.0
53701.0,STARLINK-4711,PAYLOAD,2024-05-25 14:08:02,15.08833635,0.0002386,53.2167,295.581,140.0071,220.1097,3.3866e-05,2.51e-06,0.0,0 STARLINK-4711,1 53701U 22107B   24146.58891298  .00000251  00000-0  33866-4 0  9993,2 53701  53.2167 295.5810 0002386 140.0071 220.1097 15.08833635 96260,6917.9,95.438,541.415,538.114,0.0
53701.0,STARLINK-4711,PAYLOAD,2024-05-25 20:29:35,15.08828177,0.0001249,53.2181,294.4026,84.7824,275.3311,1.2935e-05,-8.2e-07,0.0,0 STARLINK-4711,1 53701U 22107B   24146.85388093 -.00000082  00000-0  12935-4 0  9994,2 53701  53.2181 294.4026 0001249  84.7824 275.3311 15.08828177 95557,6917.917,95.438,540.646,538.917,0.0
